NORAD_CAT_ID,OBJECT_NAME,OBJECT_TYPE,EPOCH,MEAN_MOTION,ECCENTRICITY,INCLINATION,RA_OF_ASC_NODE,ARG_OF_PERICENTER,MEAN_ANOMALY,BSTAR,MEAN_MOTION_DOT,MEAN_MOTION_DDOT,TLE_LINE0,TLE_LINE1,TLE_LINE2,SEMIMAJOR_AXIS,PERIOD,APOGEE,PERIGEE,DECAYED
54179.0,STARLINK-5122,PAYLOAD,2024-08-21 15:00:59,15.08840475,0.0001351,53.219,20.6833,71.008,289.1059,-8.1213e-05,-1.58e-05,0.0,0 STARLINK-5122,1 54179U 22141Y   24234.62568694 -.00001580  00000-0 -81213-4 0  9992,2 54179  53.2190  20.6833 0001351  71.0080 289.1059 15.08840475100553,6917.879,95.438,540.679,538.809,0.0
54179.0,STARLINK-5122,PAYLOAD,2024-08-21 16:36:22,15.08837507,0.0001285,53.2194,20.386,76.8367,283.2768,-8.3857e-06,-4.21e-06,0.0,0 STARLINK-5122,1 54179U 22141Y   24234.69192603 -.00000421  00000-0 -83857-5 0  9992,2 54179  53.2194  20.3860 0001285  76.8367 283.2768 15.08837507100791,6917.888,95.438,540.642,538.864,0.0
54179.0,STARLINK-5122,PAYLOAD,2024-08-21 19:47:08,15.08837163,0.0001312,53.2198,19.7895,80.1566,279.9574,-2.5863e-06,-3.29e-06,0.0,0 STARLINK-5122,1 54179U 22141Y   24234.82440618 -.00000329  00000-0 -25863-5 0  9999,2 54179  53.2198  19.7895 0001312  80.1566 279.9574 15.08837163100587,6917.889,95.438,540.662,538.846,0.0
